[{"OBJECT_NAME":"STARLINK-30497","OBJECT_ID":"2023-153W","EPOCH":"2026-03-08T17:33:50.388480","MEAN_MOTION":15.26752453,"ECCENTRICITY":0.00016398,"INCLINATION":43.0056,"RA_OF_ASC_NODE":72.1224,"ARG_OF_PERICENTER":251.9212,"MEAN_ANOMALY":108.1461,"EPHEMERIS_TYPE":0,"CLASSIFICATION_TYPE":"U","NORAD_CAT_ID":58011,"ELEMENT_SET_NO":999,"REV_AT_EPOCH":13475,"BSTAR":8.7316504e-5,"MEAN_MOTION_DOT":2.084e-5,"MEAN_MOTION_DDOT":0},{"OBJECT_NAME":"FLOCK 4G-15","OBJECT_ID":"2025-009BX","EPOCH":"2026-03-09T17:13:37.807680","MEAN_MOTION":15.27266411,"ECCENTRICITY":0.00036988,"INCLINATION":97.4054,"RA_OF_ASC_NODE":151.1927,"ARG_OF_PERICENTER":316.8208,"MEAN_ANOMALY":43.274,"EPHEMERIS_TYPE":0,"CLASSIFICATION_TYPE":"U","NORAD_CAT_ID":62678,"ELEMENT_SET_NO":999,"REV_AT_EPOCH":12135,"BSTAR":0.00047574812,"MEAN_MOTION_DOT":0.00012647,"MEAN_MOTION_DDOT":0}]
